[{"OBJECT_NAME":"STARLINK-31645","OBJECT_ID":"2024-050L","EPOCH":"2026-03-09T14:28:30.861408","MEAN_MOTION":15.30190773,"ECCENTRICITY":0.0001194,"INCLINATION":53.1575,"RA_OF_ASC_NODE":181.5135,"ARG_OF_PERICENTER":83.414,"MEAN_ANOMALY":276.6997,"EPHEMERIS_TYPE":0,"CLASSIFICATION_TYPE":"U","NORAD_CAT_ID":59264,"ELEMENT_SET_NO":999,"REV_AT_EPOCH":11053,"BSTAR":0.00081612,"MEAN_MOTION_DOT":0.00023883,"MEAN_MOTION_DDOT":0},{"OBJECT_NAME":"CZ-4B DEB","OBJECT_ID":"1999-057DZ","EPOCH":"2026-03-09T09:52:12.897696","MEAN_MOTION":15.33653758,"ECCENTRICITY":0.00127381,"INCLINATION":98.4932,"RA_OF_ASC_NODE":238.6814,"ARG_OF_PERICENTER":254.7139,"MEAN_ANOMALY":105.2693,"EPHEMERIS_TYPE":0,"CLASSIFICATION_TYPE":"U","NORAD_CAT_ID":26235,"ELEMENT_SET_NO":999,"REV_AT_EPOCH":38912,"BSTAR":0.0023807093,"MEAN_MOTION_DOT":0.00078286,"MEAN_MOTION_DDOT":0}]
